{"type": "FeatureCollection", "features": [ {"type": "Feature", "properties": {"norad_id": 30514, "name": "FENGYUN 1C DEB", "group": "fengyun-1c-debris", "lat": -51.18255138259598, "lon": 11.289120568237866, "alt_km": 908.7625716491175, "timestamp": "2025-12-02T21:34:01.547996+00:00", "meta": {"OBJECT_NAME": "FENGYUN 1C DEB", "OBJECT_ID": "1999-025AJC", "EPOCH": "2025-12-01T12:19:49.791936", "MEAN_MOTION": 14.34296657, "ECCENTRICITY": 0.01745708, "INCLINATION": 98.4148, "RA_OF_ASC_NODE": 359.3378, "ARG_OF_PERICENTER": 127.3328, "MEAN_ANOMALY": 234.3908, "EPHEMERIS_TYPE": 0, "CLASSIFICATION_TYPE": "U", "NORAD_CAT_ID": 30514, "ELEMENT_SET_NO": 999, "REV_AT_EPOCH": 98064, "BSTAR": 0.00051011639, "MEAN_MOTION_DOT": 1.655e-05, "MEAN_MOTION_DDOT": 0}, "tle": {"line1": "1 30514U 99025AJC 25335.51377074  .00001655  00000+0  51012-3 0  9998", "line2": "2 30514  98.4148 359.3378 0174570 127.3328 234.3908 14.34296657980640"}}, "geometry": {"type": "Point", "coordinates": [11.289120568237866, -51.18255138259598]}}, {"type": "Feature", "properties": {"norad_id": 30515, "name": "FENGYUN 1C DEB", "group": "fengyun-1c-debris", "lat": 79.9640155389192, "lon": 92.01469805163907, "alt_km": 648.4987541137725, "timestamp": "2025-12-02T21:34:01.548007+00:00", "meta": {"OBJECT_NAME": "FENGYUN 1C DEB", "OBJECT_ID": "1999-025AJD", "EPOCH": "2025-12-02T04:12:47.914848", "MEAN_MOTION": 13.63734859, "ECCENTRICITY": 0.04967595, "INCLINATION": 98.5096, "RA_OF_ASC_NODE": 213.6041, "ARG_OF_PERICENTER": 102.6005, "MEAN_ANOMALY": 45.2523, "EPHEMERIS_TYPE": 0, "CLASSIFICATION_TYPE": "U", "NORAD_CAT_ID": 30515, "ELEMENT_SET_NO": 999, "REV_AT_EPOCH": 93186, "BSTAR": 0.00098668017, "MEAN_MOTION_DOT": 1.781e-05, "MEAN_MOTION_DDOT": 0}, "tle": {"line1": "1 30515U 99025AJD 25336.17555457  .00001781  00000+0  98668-3 0  9993", "line2": "2 30515  98.5096 213.6041 0496759 102.6005  45.2523 13.63734859931861"}}, "geometry": {"type": "Point", "coordinates": [92.01469805163907, 79.9640155389192]}}, {"type": "Feature", "properties": {"norad_id": 30516, "name": "FENGYUN 1C DEB", "group": "fengyun-1c-debris", "lat": 17.851400607305322, "lon": 77.67799804447884, "alt_km": 751.8025215245216, "timestamp": "2025-12-02T21:34:01.548017+00:00", "meta": {"OBJECT_NAME": "FENGYUN 1C DEB", "OBJECT_ID": "1999-025AJE", "EPOCH": "2025-12-02T06:44:24.174240", "MEAN_MOTION": 14.41099399, "ECCENTRICITY": 0.0008317, "INCLINATION": 98.8578, "RA_OF_ASC_NODE": 79.9169, "ARG_OF_PERICENTER": 324.7802, "MEAN_ANOMALY": 90.0599, "EPHEMERIS_TYPE": 0, "CLASSIFICATION_TYPE": "U", "NORAD_CAT_ID": 30516, "ELEMENT_SET_NO": 999, "REV_AT_EPOCH": 97564, "BSTAR": 0.002644, "MEAN_MOTION_DOT": 8.482e-05, "MEAN_MOTION_DDOT": 0}, "tle": {"line1": "1 30516U 99025AJE 25336.28083535  .00008482  00000+0  26440-2 0  9992", "line2": "2 30516  98.8578  79.9169 0008317 324.7802  90.0599 14.41099399975640"}}, "geometry": {"type": "Point", "coordinates": [77.67799804447884, 17.851400607305322]}}, {"type": "Feature", "properties": {"norad_id": 30520, "name": "FENGYUN 1C DEB", "group": "fengyun-1c-debris", "lat": 79.5093456329051, "lon": 24.254472069567946, "alt_km": 479.2860249452506, "timestamp": "2025-12-02T21:34:01.548027+00:00", "meta": {"OBJECT_NAME": "FENGYUN 1C DEB", "OBJECT_ID": "1999-025AJJ", "EPOCH": "2025-12-02T10:02:15.859968", "MEAN_MOTION": 15.13355641, "ECCENTRICITY": 0.0071064, "INCLINATION": 98.7182, "RA_OF_ASC_NODE": 147.7388, "ARG_OF_PERICENTER": 134.6248, "MEAN_ANOMALY": 226.0805, "EPHEMERIS_TYPE": 0, "CLASSIFICATION_TYPE": "U", "NORAD_CAT_ID": 30520, "ELEMENT_SET_NO": 999, "REV_AT_EPOCH": 885, "BSTAR": 0.0015516, "MEAN_MOTION_DOT": 0.00029456, "MEAN_MOTION_DDOT": 0}, "tle": {"line1": "1 30520U 99025AJJ 25336.41823912  .00029456  00000+0  15516-2 0  9999", "line2": "2 30520  98.7182 147.7388 0071064 134.6248 226.0805 15.13355641  8859"}}, "geometry": {"type": "Point", "coordinates": [24.254472069567946, 79.5093456329051]}}, {"type": "Feature", "properties": {"norad_id": 30521, "name": "FENGYUN 1C DEB", "group": "fengyun-1c-debris", "lat": 65.4807335680871, "lon": 91.03479990304211, "alt_km": 778.412095980776, "timestamp": "2025-12-02T21:34:01.548037+00:00", "meta": {"OBJECT_NAME": "FENGYUN 1C DEB", "OBJECT_ID": "1999-025AJK", "EPOCH": "2025-12-02T08:04:53.020128", "MEAN_MOTION": 14.5811834, "ECCENTRICITY": 0.0135675, "INCLINATION": 98.9874, "RA_OF_ASC_NODE": 110.7298, "ARG_OF_PERICENTER": 275.459, "MEAN_ANOMALY": 83.1143, "EPHEMERIS_TYPE": 0, "CLASSIFICATION_TYPE": "U", "NORAD_CAT_ID": 30521, "ELEMENT_SET_NO": 999, "REV_AT_EPOCH": 99430, "BSTAR": 0.00091854, "MEAN_MOTION_DOT": 4.743e-05, "MEAN_MOTION_DDOT": 0}, "tle": {"line1": "1 30521U 99025AJK 25336.33672477  .00004743  00000+0  91854-3 0  9991", "line2": "2 30521  98.9874 110.7298 0135675 275.4590  83.1143 14.58118340994305"}}, "geometry": {"type": "Point", "coordinates": [91.03479990304211, 65.4807335680871]}}, {"type": "Feature", "properties": {"norad_id": 30523, "name": "FENGYUN 1C DEB", "group": "fengyun-1c-debris", "lat": -32.830086002419804, "lon": -38.95797452741637, "alt_km": 977.3348736116823, "timestamp": "2025-12-02T21:34:01.548047+00:00", "meta": {"OBJECT_NAME": "FENGYUN 1C DEB", "OBJECT_ID": "1999-025AJM", "EPOCH": "2025-12-02T12:14:00.722112", "MEAN_MOTION": 14.27911587, "ECCENTRICITY": 0.0243834, "INCLINATION": 98.4651, "RA_OF_ASC_NODE": 315.1509, "ARG_OF_PERICENTER": 138.5285, "MEAN_ANOMALY": 350.823, "EPHEMERIS_TYPE": 0, "CLASSIFICATION_TYPE": "U", "NORAD_CAT_ID": 30523, "ELEMENT_SET_NO": 999, "REV_AT_EPOCH": 97954, "BSTAR": 0.0001828, "MEAN_MOTION_DOT": 5.75e-06, "MEAN_MOTION_DDOT": 0}, "tle": {"line1": "1 30523U 99025AJM 25336.50973058  .00000575  00000+0  18280-3 0  9992", "line2": "2 30523  98.4651 315.1509 0243834 138.5285 350.8230 14.27911587979548"}}, "geometry": {"type": "Point", "coordinates": [-38.95797452741637, -32.830086002419804]}}, {"type": "Feature", "properties": {"norad_id": 30524, "name": "FENGYUN 1C DEB", "group": "fengyun-1c-debris", "lat": 63.59472379964394, "lon": -11.75080004765898, "alt_km": 1059.5921154672806, "timestamp": "2025-12-02T21:34:01.548056+00:00", "meta": {"OBJECT_NAME": "FENGYUN 1C DEB", "OBJECT_ID": "1999-025AJN", "EPOCH": "2025-12-02T10:39:06.638112", "MEAN_MOTION": 13.9193451, "ECCENTRICITY": 0.0208158, "INCLINATION": 99.3096, "RA_OF_ASC_NODE": 148.5018, "ARG_OF_PERICENTER": 277.7648, "MEAN_ANOMALY": 79.9924, "EPHEMERIS_TYPE": 0, "CLASSIFICATION_TYPE": "U", "NORAD_CAT_ID": 30524, "ELEMENT_SET_NO": 999, "REV_AT_EPOCH": 93742, "BSTAR": 0.0058451, "MEAN_MOTION_DOT": 8.859e-05, "MEAN_MOTION_DDOT": 0}, "tle": {"line1": "1 30524U 99025AJN 25336.44382683  .00008859  00000+0  58451-2 0  9990", "line2": "2 30524  99.3096 148.5018 0208158 277.7648  79.9924 13.91934510937425"}}, "geometry": {"type": "Point", "coordinates": [-11.75080004765898, 63.59472379964394]}}, {"type": "Feature", "properties": {"norad_id": 30525, "name": "FENGYUN 1C DEB", "group": "fengyun-1c-debris", "lat": 74.61926688902597, "lon": 76.57254165272282, "alt_km": 1163.4256655591626, "timestamp": "2025-12-02T21:34:01.548066+00:00", "meta": {"OBJECT_NAME": "FENGYUN 1C DEB", "OBJECT_ID": "1999-025AJP", "EPOCH": "2025-11-29T15:18:01.303776", "MEAN_MOTION": 13.58546207, "ECCENTRICITY": 0.02944783, "INCLINATION": 98.6024, "RA_OF_ASC_NODE": 220.3231, "ARG_OF_PERICENTER": 343.5489, "MEAN_ANOMALY": 15.6252, "EPHEMERIS_TYPE": 0, "CLASSIFICATION_TYPE": "U", "NORAD_CAT_ID": 30525, "ELEMENT_SET_NO": 999, "REV_AT_EPOCH": 92939, "BSTAR": 0.0016497634, "MEAN_MOTION_DOT": 1.559e-05, "MEAN_MOTION_DDOT": 0}, "tle": {"line1": "1 30525U 99025AJP 25333.63751509  .00001559  00000+0  16498-2 0  9991", "line2": "2 30525  98.6024 220.3231 0294478 343.5489  15.6252 13.58546207929393"}}, "geometry": {"type": "Point", "coordinates": [76.57254165272282, 74.61926688902597]}}, {"type": "Feature", "properties": {"norad_id": 30526, "name": "FENGYUN 1C DEB", "group": "fengyun-1c-debris", "lat": 37.60183638553333, "lon": 52.10840274155577, "alt_km": 1137.5100444132095, "timestamp": "2025-12-02T21:34:01.548076+00:00", "meta": {"OBJECT_NAME": "FENGYUN 1C DEB", "OBJECT_ID": "1999-025AJQ", "EPOCH": "2025-12-02T12:29:04.008192", "MEAN_MOTION": 13.49872737, "ECCENTRICITY": 0.0305432, "INCLINATION": 99.5479, "RA_OF_ASC_NODE": 59.1928, "ARG_OF_PERICENTER": 290.2967, "MEAN_ANOMALY": 66.5588, "EPHEMERIS_TYPE": 0, "CLASSIFICATION_TYPE": "U", "NORAD_CAT_ID": 30526, "ELEMENT_SET_NO": 999, "REV_AT_EPOCH": 92520, "BSTAR": 0.0017632, "MEAN_MOTION_DOT": 1.45e-05, "MEAN_MOTION_DDOT": 0}, "tle": {"line1": "1 30526U 99025AJQ 25336.52018528  .00001450  00000+0  17632-2 0  9991", "line2": "2 30526  99.5479  59.1928 0305432 290.2967  66.5588 13.49872737925204"}}, "geometry": {"type": "Point", "coordinates": [52.10840274155577, 37.60183638553333]}}, {"type": "Feature", "properties": {"norad_id": 30527, "name": "FENGYUN 1C DEB", "group": "fengyun-1c-debris", "lat": -69.60410911599885, "lon": 171.9354516042438, "alt_km": 840.1519105833686, "timestamp": "2025-12-02T21:34:01.548086+00:00", "meta": {"OBJECT_NAME": "FENGYUN 1C DEB", "OBJECT_ID": "1999-025AJR", "EPOCH": "2025-12-01T14:26:03.983136", "MEAN_MOTION": 13.30989351, "ECCENTRICITY": 0.04125167, "INCLINATION": 100.0646, "RA_OF_ASC_NODE": 19.1957, "ARG_OF_PERICENTER": 252.9034, "MEAN_ANOMALY": 266.536, "EPHEMERIS_TYPE": 0, "CLASSIFICATION_TYPE": "U", "NORAD_CAT_ID": 30527, "ELEMENT_SET_NO": 999, "REV_AT_EPOCH": 91208, "BSTAR": 0.0017691937, "MEAN_MOTION_DOT": 1.299e-05, "MEAN_MOTION_DDOT": 0}, "tle": {"line1": "1 30527U 99025AJR 25335.60143499  .00001299  00000+0  17692-2 0  9993", "line2": "2 30527 100.0646  19.1957 0412516 252.9034 266.5360 13.30989351912082"}}, "geometry": {"type": "Point", "coordinates": [171.9354516042438, -69.60410911599885]}}]}